NORAD_CAT_ID,OBJECT_NAME,OBJECT_TYPE,EPOCH,MEAN_MOTION,ECCENTRICITY,INCLINATION,RA_OF_ASC_NODE,ARG_OF_PERICENTER,MEAN_ANOMALY,BSTAR,MEAN_MOTION_DOT,MEAN_MOTION_DDOT,TLE_LINE0,TLE_LINE1,TLE_LINE2,SEMIMAJOR_AXIS,PERIOD,APOGEE,PERIGEE,DECAYED
52119.0,STARLINK-3558,PAYLOAD,2023-08-20 10:56:03,15.08838319,0.0001362,53.2177,304.0802,70.9496,289.1644,0.0001383,1.914e-05,0.0,0 STARLINK-3558,1 52119U 22029AH  23232.45560158  .00001914  00000-0  13830-3 0  9992,2 52119  53.2177 304.0802 0001362  70.9496 289.1644 15.08838319 80063,6917.886,95.438,540.693,538.808,0.0
52119.0,STARLINK-3558,PAYLOAD,2023-08-21 23:29:56,15.08841556,0.0001233,53.2161,297.2467,68.9519,291.1605,0.00019542,2.824e-05,0.0,0 STARLINK-3558,1 52119U 22029AH  23233.97912094  .00002824  00000-0  19542-3 0  9997,2 52119  53.2161 297.2467 0001233  68.9519 291.1605 15.08841556 80298,6917.876,95.437,540.594,538.888,0.0
52119.0,STARLINK-3558,PAYLOAD,2023-08-22 10:37:38,15.08838339,0.0001201,53.2162,295.1647,74.3459,285.7666,9.6354e-06,-1.34e-06,0.0,0 STARLINK-3558,1 52119U 22029AH  23234.44280292 -.00000134  00000-0  96354-5 0  9999,2 52119  53.2162 295.1647 0001201  74.3459 285.7666 15.08838339 80364,6917.885,95.438,540.581,538.92,0.0
52119.0,STARLINK-3558,PAYLOAD,2023-08-24 10:19:12,15.08836175,0.0001096,53.2164,286.2414,94.1366,265.9752,0.0001047,1.379e-05,0.0,0 STARLINK-3558,1 52119U 22029AH  23236.43000470  .00001379  00000-0  10470-3 0  9992,2 52119  53.2164 286.2414 0001096  94.1366 265.9752 15.08836175 80652,6917.892,95.438,540.515,538.999,0.0
52119.0,STARLINK-3558,PAYLOAD,2023-08-25 02:13:04,15.0882909,0.0001213,53.2179,283.2711,95.3783,264.7347,3.6163e-06,-2.3e-06,0.0,0 STARLINK-3558,1 52119U 22029AH  23237.09241583 -.00000230  00000-0  36163-5 0  9992,2 52119  53.2179 283.2711 0001213  95.3783 264.7347 15.08829090 80769,6917.914,95.438,540.618,538.94,0.0
52119.0,STARLINK-3558,PAYLOAD,2023-08-25 10:10:00,15.08823715,0.0001297,53.2166,281.7816,102.0403,258.0734,-4.9576e-05,-1.076e-05,0.0,0 STARLINK-3558,1 52119U 22029AH  23237.42362254 -.00001076  00000-0 -49576-4 0  9999,2 52119  53.2166 281.7816 0001297 102.0403 258.0734 15.08823715 80800,6917.93,95.439,540.692,538.898,0.0
52119.0,STARLINK-3558,PAYLOAD,2023-08-26 02:03:52,15.0882828,0.0001304,53.2168,278.8076,103.807,256.3067,7.4516e-05,8.98e-06,0.0,0 STARLINK-3558,1 52119U 22029AH  23238.08602121  .00000898  00000-0  74516-4 0  9993,2 52119  53.2168 278.8076 0001304 103.8070 256.3067 15.08828280 80919,6917.916,95.438,540.683,538.879,0.0
52119.0,STARLINK-3558,PAYLOAD,2023-08-26 10:00:47,15.08833399,0.0001306,53.2169,277.3211,101.3395,258.7744,0.00011471,1.538e-05,0.0,0 STARLINK-3558,1 52119U 22029AH  23238.41721964  .00001538  00000-0  11471-3 0  9999,2 52119  53.2169 277.3211 0001306 101.3395 258.7744 15.08833399 80959,6917.901,95.438,540.669,538.862,0.0
52119.0,STARLINK-3558,PAYLOAD,2023-08-27 03:30:01,15.08841321,0.0001164,53.216,274.0492,96.6886,263.4239,0.00025584,3.786e-05,0.0,0 STARLINK-3558,1 52119U 22029AH  23239.14585486  .00003786  00000-0  25584-3 0  9994,2 52119  53.2160 274.0492 0001164  96.6886 263.4239 15.08841321 81078,6917.876,95.437,540.547,538.936,0.0
52119.0,STARLINK-3558,PAYLOAD,2023-08-27 09:51:34,15.08847251,0.0001183,53.2162,272.8598,97.6362,262.4765,0.00029768,4.454e-05,0.0,0 STARLINK-3558,1 52119U 22029AH  23239.41081136  .00004454  00000-0  29768-3 0  9998,2 52119  53.2162 272.8598 0001183  97.6362 262.4765 15.08847251 81109,6917.858,95.437,540.542,538.905,0.0
52119.0,STARLINK-3558,PAYLOAD,2023-08-28 08:06:57,15.08854285,0.0001248,53.2158,268.6971,93.6151,266.4983,0.00016895,2.403e-05,0.0,0 STARLINK-3558,1 52119U 22029AH  23240.33816676  .00002403  00000-0  16895-3 0  9995,2 52119  53.2158 268.6971 0001248  93.6151 266.4983 15.08854285 81253,6917.837,95.437,540.565,538.838,0.0
52119.0,STARLINK-3558,PAYLOAD,2023-08-28 19:14:39,15.08851189,0.0001334,53.2157,266.6159,91.7483,268.3662,5.3655e-05,5.66e-06,0.0,0 STARLINK-3558,1 52119U 22029AH  23240.80184497  .00000566  00000-0  53655-4 0  9990,2 52119  53.2157 266.6159 0001334  91.7483 268.3662 15.08851189 81313,6917.846,95.437,540.634,538.788,0.0
52119.0,STARLINK-3558,PAYLOAD,2023-08-29 01:36:11,15.08847267,0.0001061,53.2151,265.4282,67.7188,292.3916,2.0878e-05,4.5e-07,0.0,0 STARLINK-3558,1 52119U 22029AH  23241.06680450  .00000045  00000-0  20878-4 0  9992,2 52119  53.2151 265.4282 0001061  67.7188 292.3916 15.08847267 81369,6917.858,95.437,540.457,538.989,0.0
52119.0,STARLINK-3558,PAYLOAD,2023-08-29 07:57:44,15.08846826,0.0001357,53.2157,264.2366,96.6984,263.4163,-6.0684e-05,-1.254e-05,0.0,0 STARLINK-3558,1 52119U 22029AH  23241.33176448 -.00001254  00000-0 -60684-4 0  9993,2 52119  53.2157 264.2366 0001357  96.6984 263.4163 15.08846826 81394,6917.86,95.437,540.663,538.786,0.0
52119.0,STARLINK-3558,PAYLOAD,2023-08-30 01:26:59,15.08843219,0.0001331,53.2161,260.9652,97.2392,262.8751,-1.5362e-05,-5.32e-06,0.0,0 STARLINK-3558,1 52119U 22029AH  23242.06040800 -.00000532  00000-0 -15362-4 0  9997,2 52119  53.2161 260.9652 0001331  97.2392 262.8751 15.08843219 81515,6917.871,95.437,540.656,538.815,0.0
52119.0,STARLINK-3558,PAYLOAD,2023-08-30 07:48:31,15.08841875,0.0001412,53.2165,259.7757,99.5377,260.5775,-2.973e-05,-7.61e-06,0.0,0 STARLINK-3558,1 52119U 22029AH  23242.32536804 -.00000761  00000-0 -29730-4 0  9998,2 52119  53.2165 259.7757 0001412  99.5377 260.5775 15.08841875 81549,6917.875,95.437,540.716,538.763,0.0
52119.0,STARLINK-3558,PAYLOAD,2023-08-31 01:17:46,15.08838557,0.000131,53.2157,256.5051,95.5555,264.5586,7.064e-05,8.36e-06,0.0,0 STARLINK-3558,1 52119U 22029AH  23243.05400709  .00000836  00000-0  70640-4 0  9990,2 52119  53.2157 256.5051 0001310  95.5555 264.5586 15.08838557 81652,6917.885,95.438,540.656,538.844,0.0
52119.0,STARLINK-3558,PAYLOAD,2023-09-01 01:08:33,15.08837196,0.0001333,53.2165,252.0445,92.9591,267.1554,6.7079e-05,7.8e-06,0.0,0 STARLINK-3558,1 52119U 22029AH  23244.04761057  .00000780  00000-0  67079-4 0  9996,2 52119  53.2165 252.0445 0001333  92.9591 267.1554 15.08837196 81815,6917.889,95.438,540.676,538.832,0.0
52119.0,STARLINK-3558,PAYLOAD,2023-09-01 07:30:06,15.08836683,0.0001336,53.2167,250.8557,91.3047,268.8098,5.8972e-05,6.51e-06,0.0,0 STARLINK-3558,1 52119U 22029AH  23244.31257237  .00000651  00000-0  58972-4 0  9995,2 52119  53.2167 250.8557 0001336  91.3047 268.8098 15.08836683 81843,6917.891,95.438,540.68,538.831,0.0
52119.0,STARLINK-3558,PAYLOAD,2023-09-01 17:02:25,15.08838287,0.0001318,53.2164,249.0712,90.3917,269.7226,6.6232e-05,7.66e-06,0.0,0 STARLINK-3558,1 52119U 22029AH  23244.71001193  .00000766  00000-0  66232-4 0  9992,2 52119  53.2164 249.0712 0001318  90.3917 269.7226 15.08838287 81900,6917.886,95.438,540.662,538.839,0.0
52119.0,STARLINK-3558,PAYLOAD,2023-09-02 00:59:20,15.08839508,0.0001283,53.2139,247.5821,84.497,275.6169,8.5936e-05,1.08e-05,0.0,0 STARLINK-3558,1 52119U 22029AH  23245.04121051  .00001080  00000-0  85936-4 0  9997,2 52119  53.2139 247.5821 0001283  84.4970 275.6169 15.08839508 81954,6917.882,95.438,540.634,538.859,0.0
52119.0,STARLINK-3558,PAYLOAD,2023-09-02 16:53:11,15.08841397,0.0001293,53.2144,244.6086,84.0507,276.0633,9.7955e-05,1.271e-05,0.0,0 STARLINK-3558,1 52119U 22029AH  23245.70360928  .00001271  00000-0  97955-4 0  9994,2 52119  53.2144 244.6086 0001293  84.0507 276.0633 15.08841397 82067,6917.876,95.437,540.636,538.847,0.0
52119.0,STARLINK-3558,PAYLOAD,2023-09-03 00:50:08,15.08831157,0.0001454,53.2166,243.1243,91.0749,269.0409,2.0727e-05,4.2e-07,0.0,0 STARLINK-3558,1 52119U 22029AH  23246.03481883  .00000042  00000-0  20727-4 0  9993,2 52119  53.2166 243.1243 0001454  91.0749 269.0409 15.08831157 82117,6917.907,95.438,540.778,538.767,0.0
52119.0,STARLINK-3558,PAYLOAD,2023-09-03 07:11:40,15.08836351,0.000148,53.2162,241.9351,92.4219,267.6942,6.4017e-05,7.31e-06,0.0,0 STARLINK-3558,1 52119U 22029AH  23246.29977540  .00000731  00000-0  64017-4 0  9996,2 52119  53.2162 241.9351 0001480  92.4219 267.6942 15.08836351 82145,6917.892,95.438,540.78,538.733,0.0
52119.0,STARLINK-3558,PAYLOAD,2023-09-03 16:43:59,15.08836981,0.000149,53.2163,240.1502,88.5898,271.5265,6.1848e-05,6.96e-06,0.0,0 STARLINK-3558,1 52119U 22029AH  23246.69721611  .00000696  00000-0  61848-4 0  9995,2 52119  53.2163 240.1502 0001490  88.5898 271.5265 15.08836981 82214,6917.89,95.438,540.785,538.724,0.0
52119.0,STARLINK-3558,PAYLOAD,2023-09-04 05:27:04,15.08834856,0.00016,53.2167,237.7728,90.1113,270.0063,-1.0722e-05,-4.59e-06,0.0,0 STARLINK-3558,1 52119U 22029AH  23247.22714062 -.00000459  00000-0 -10722-4 0  9991,2 52119  53.2167 237.7728 0001600  90.1113 270.0063 15.08834856 82288,6917.896,95.438,540.868,538.654,0.0
52119.0,STARLINK-3558,PAYLOAD,2023-09-05 08:28:38,15.08838769,0.0001582,53.2165,232.7149,86.307,273.8103,8.2343e-05,1.023e-05,0.0,0 STARLINK-3558,1 52119U 22029AH  23248.35321835  .00001023  00000-0  82343-4 0  9992,2 52119  53.2165 232.7149 0001582  86.3070 273.8103 15.08838769 82469,6917.884,95.438,540.844,538.655,0.0
52119.0,STARLINK-3558,PAYLOAD,2023-09-06 08:19:24,15.08843856,0.0001555,53.217,228.2546,86.2314,273.8856,0.00011026,1.467e-05,0.0,0 STARLINK-3558,1 52119U 22029AH  23249.34681467  .00001467  00000-0  11026-3 0  9993,2 52119  53.2170 228.2546 0001555  86.2314 273.8856 15.08843856 82600,6917.869,95.437,540.809,538.658,0.0
52119.0,STARLINK-3558,PAYLOAD,2023-09-06 22:37:52,15.08847251,0.0001782,53.2164,225.5779,88.3229,271.7967,4.9501e-05,5e-06,0.0,0 STARLINK-3558,1 52119U 22029AH  23249.94297385  .00000500  00000-0  49501-4 0  9998,2 52119  53.2164 225.5779 0001782  88.3229 271.7967 15.08847251 82705,6917.858,95.437,540.956,538.49,0.0
52119.0,STARLINK-3558,PAYLOAD,2023-09-07 08:10:10,15.08853329,0.0001557,53.2178,223.7934,92.3158,267.8012,0.00012029,1.628e-05,0.0,0 STARLINK-3558,1 52119U 22029AH  23250.34040478  .00001628  00000-0  12029-3 0  9999,2 52119  53.2178 223.7934 0001557  92.3158 267.8012 15.08853329 82765,6917.84,95.437,540.782,538.628,0.0
